GLOBALSTAR M084         
1 38040U 11080A   25131.50818676 -.00000071  00000+0  18453-3 0  9990
2 38040  51.9981 160.1383 0000185 331.6267 179.5127 12.62266015618035
GLOBALSTAR M080         
1 38041U 11080B   25131.56146723 -.00000068  00000+0  20116-3 0  9999
2 38041  52.0034 161.5544 0000603  93.2590  70.2363 12.62262820618305
GLOBALSTAR M082         
1 38042U 11080C   25131.22691619 -.00000101  00000+0  13227-4 0  9996
2 38042  52.0053 118.0283 0000592  87.5413 285.1654 12.62266190618833
GLOBALSTAR M092         
1 38043U 11080D   25131.51753059 -.00000078  00000+0  14430-3 0  9995
2 38043  52.0073 207.5201 0000345 126.3981 247.7833 12.62264192617324
GLOBALSTAR M090         
1 38044U 11080E   25131.44748769 -.00000107  00000+0 -18729-4 0  9990
2 38044  51.9865 111.2113 0000350  82.9612  92.7771 12.62270200618977
GLOBALSTAR M086         
1 38045U 11080F   25131.71026429 -.00000093  00000+0  61093-4 0  9998
2 38045  51.9877 110.9590 0000645 238.8630 291.9886 12.62270777619054
GLOBALSTAR M097         
1 39072U 13005A   25131.77843285 -.00000099  00000+0  25961-4 0  9991
2 39072  52.0070  25.2620 0000630  93.9128 266.1810 12.62271901566298
GLOBALSTAR M093         
1 39073U 13005B   25131.43516202 -.00000088  00000+0  87518-4 0  9995
2 39073  51.9836  19.6680 0000706  92.0771 268.0176 12.62264454566121
